{
  "features": [
    {
      "geometry": {
        "coordinates": [
          [
            116.587,
            40.08
          ],
          [
            116.5207894,
            39.80267641
          ],
          [
            116.4551108,
            39.5253155
          ],
          [
            116.3899548,
            39.24791792
          ],
          [
            116.3253123,
            38.97048432
          ],
          [
            116.2611742,
            38.69301534
          ],
          [
            116.1975317,
            38.4155116
          ],
          [
            116.1343764,
            38.1379737
          ],
          [
            116.0716996,
            37.86040225
          ],
          [
            116.0094932,
            37.58279783
          ],
          [
            115.947749,
            37.305161
          ],
          [
            115.8864591,
            37.02749234
          ],
          [
            115.8256157,
            36.74979238
          ],
          [
            115.7652112,
            36.47206167
          ],
          [
            115.705238,
            36.19430074
          ],
          [
            115.6456888,
            35.91651011
          ],
          [
            115.5865564,
            35.63869027
          ],
          [
            115.5278338,
            35.36084174
          ],
          [
            115.4695139,
            35.082965
          ],
          [
            115.4115901,
            34.80506053
          ],
          [
            115.3540555,
            34.52712879
          ],
          [
            115.2969038,
            34.24917026
          ],
          [
            115.2401283,
            33.97118538
          ],
          [
            115.1837229,
            33.6931746
          ],
          [
            115.1276813,
            33.41513836
          ],
          [
            115.0719973,
            33.13707708
          ],
          [
            115.0166652,
            32.85899118
          ],
          [
            114.9616788,
            32.58088109
          ],
          [
            114.9070326,
            32.30274719
          ],
          [
            114.8527208,
            32.0245899
          ],
          [
            114.7987378,
            31.74640961
          ],
          [
            114.7450783,
            31.46820669
          ],
          [
            114.6917367,
            31.18998153
          ],
          [
            114.6387078,
            30.91173449
          ],
          [
            114.5859865,
            30.63346595
          ],
          [
            114.5335675,
            30.35517627
          ],
          [
            114.481446,
            30.07686579
          ],
          [
            114.4296169,
            29.79853486
          ],
          [
            114.3780753,
            29.52018382
          ],
          [
            114.3268166,
            29.24181302
          ],
          [
            114.2758359,
            28.96342277
          ],
          [
            114.2251288,
            28.68501341
          ],
          [
            114.1746905,
            28.40658525
          ],
          [
            114.1245167,
            28.12813861
          ],
          [
            114.074603,
            27.8496738
          ],
          [
            114.0249449,
            27.57119112
          ],
          [
            113.9755382,
            27.29269087
          ],
          [
            113.9263788,
            27.01417334
          ],
          [
            113.8774625,
            26.73563883
          ],
          [
            113.8287851,
            26.45708763
          ],
          [
            113.7803427,
            26.17852001
          ],
          [
            113.7321314,
            25.89993625
          ],
          [
            113.6841471,
            25.62133663
          ],
          [
            113.6363862,
            25.34272141
          ],
          [
            113.5888447,
            25.06409086
          ],
          [
            113.541519,
            24.78544524
          ],
          [
            113.4944054,
            24.50678481
          ],
          [
            113.4475002,
            24.22810982
          ],
          [
            113.4007999,
            23.94942053
          ],
          [
            113.354301,
            23.67071717
          ],
          [
            113.308,
            23.392
          ]
        ],
        "type": "LineString"
      },
      "properties": {
        "arrival": "CAN",
        "departure": "PEK",
        "distanceKm": 1881,
        "frequency": 1,
        "lastDate": "2025-09-18",
        "type": "flight"
      },
      "type": "Feature"
    },
    {
      "geometry": {
        "coordinates": [
          [
            116.587,
            40.08
          ],
          [
            116.9939848,
            40.04364387
          ],
          [
            117.4005272,
            40.0058654
          ],
          [
            117.8066115,
            39.96666808
          ],
          [
            118.212222,
            39.92605549
          ],
          [
            118.6173433,
            39.88403134
          ],
          [
            119.0219599,
            39.84059948
          ],
          [
            119.4260567,
            39.79576384
          ],
          [
            119.8296189,
            39.74952849
          ],
          [
            120.2326315,
            39.70189759
          ],
          [
            120.6350802,
            39.65287543
          ],
          [
            121.0369503,
            39.60246639
          ],
          [
            121.4382279,
            39.55067498
          ],
          [
            121.8388988,
            39.4975058
          ],
          [
            122.2389494,
            39.44296355
          ],
          [
            122.638366,
            39.38705303
          ],
          [
            123.0371353,
            39.32977917
          ],
          [
            123.4352443,
            39.27114696
          ],
          [
            123.8326799,
            39.2111615
          ],
          [
            124.2294295,
            39.149828
          ],
          [
            124.6254806,
            39.08715174
          ],
          [
            125.020821,
            39.02313809
          ],
          [
            125.4154387,
            38.95779253
          ],
          [
            125.8093218,
            38.89112061
          ],
          [
            126.202459,
            38.82312797
          ],
          [
            126.5948387,
            38.75382032
          ],
          [
            126.9864501,
            38.68320348
          ],
          [
            127.3772822,
            38.61128332
          ],
          [
            127.7673244,
            38.53806579
          ],
          [
            128.1565665,
            38.46355693
          ],
          [
            128.5449983,
            38.38776285
          ],
          [
            128.9326098,
            38.31068971
          ],
          [
            129.3193917,
            38.23234376
          ],
          [
            129.7053343,
            38.15273131
          ],
          [
            130.0904286,
            38.07185873
          ],
          [
            130.4746658,
            37.98973247
          ],
          [
            130.8580371,
            37.90635901
          ],
          [
            131.2405342,
            37.82174491
          ],
          [
            131.6221489,
            37.73589679
          ],
          [
            132.0028734,
            37.64882131
          ],
          [
            132.3826999,
            37.56052519
          ],
          [
            132.7616211,
            37.4710152
          ],
          [
            133.1396297,
            37.38029815
          ],
          [
            133.5167189,
            37.28838093
          ],
          [
            133.8928819,
            37.19527042
          ],
          [
            134.2681123,
            37.1009736
          ],
          [
            134.642404,
            37.00549744
          ],
          [
            135.0157509,
            36.90884899
          ],
          [
            135.3881473,
            36.81103531
          ],
          [
            135.7595877,
            36.71206351
          ],
          [
            136.1300669,
            36.61194073
          ],
          [
            136.4995799,
            36.51067414
          ],
          [
            136.8681218,
            36.40827094
          ],
          [
            137.2356881,
            36.30473836
          ],
          [
            137.6022745,
            36.20008365
          ],
          [
            137.9678768,
            36.0943141
          ],
          [
            138.3324912,
            35.98743701
          ],
          [
            138.6961141,
            35.8794597
          ],
          [
            139.0587419,
            35.77038952
          ],
          [
            139.4203716,
            35.66023382
          ],
          [
            139.781,
            35.549
          ]
        ],
        "type": "LineString"
      },
      "properties": {
        "arrival": "PEK",
        "departure": "HND",
        "distanceKm": 2092,
        "frequency": 2,
        "lastDate": "2026-08-22",
        "type": "flight"
      },
      "type": "Feature"
    },
    {
      "geometry": {
        "coordinates": [
          [
            -0.461,
            51.47
          ],
          [
            -1.736154471,
            51.71885
          ],
          [
            -3.025022757,
            51.95374878
          ],
          [
            -4.327052256,
            52.17443065
          ],
          [
            -5.641635863,
            52.38063998
          ],
          [
            -6.968112538,
            52.57213253
          ],
          [
            -8.30576836,
            52.74867667
          ],
          [
            -9.653838099,
            52.91005464
          ],
          [
            -11.01150731,
            53.05606377
          ],
          [
            -12.37791496,
            53.18651767
          ],
          [
            -13.75215656,
            53.3012473
          ],
          [
            -15.13328785,
            53.40010202
          ],
          [
            -16.5203289,
            53.48295052
          ],
          [
            -17.91226869,
            53.54968168
          ],
          [
            -19.30807006,
            53.60020524
          ],
          [
            -20.70667507,
            53.63445245
          ],
          [
            -22.1070105,
            53.65237647
          ],
          [
            -23.5079937,
            53.65395273
          ],
          [
            -24.90853844,
            53.63917906
          ],
          [
            -26.30756092,
            53.60807574
          ],
          [
            -27.70398566,
            53.56068531
          ],
          [
            -29.09675132,
            53.49707235
          ],
          [
            -30.48481631,
            53.41732299
          ],
          [
            -31.86716418,
            53.32154441
          ],
          [
            -33.24280864,
            53.20986406
          ],
          [
            -34.61079821,
            53.08242895
          ],
          [
            -35.97022043,
            52.93940462
          ],
          [
            -37.32020564,
            52.78097423
          ],
          [
            -38.65993019,
            52.60733739
          ],
          [
            -39.98861918,
            52.41870903
          ],
          [
            -41.30554867,
            52.21531822
          ],
          [
            -42.61004731,
            51.99740686
          ],
          [
            -43.90149755,
            51.76522849
          ],
          [
            -45.17933625,
            51.51904695
          ],
          [
            -46.4430549,
            51.25913515
          ],
          [
            -47.69219934,
            50.98577381
          ],
          [
            -48.9263691,
            50.69925024
          ],
          [
            -50.14521637,
            50.39985713
          ],
          [
            -51.34844467,
            50.08789142
          ],
          [
            -52.53580718,
            49.76365321
          ],
          [
            -53.70710488,
            49.42744472
          ],
          [
            -54.86218448,
            49.07956932
          ],
          [
            -56.00093619,
            48.7203306
          ],
          [
            -57.12329136,
            48.35003156
          ],
          [
            -58.22922004,
            47.96897379
          ],
          [
            -59.31872851,
            47.5774568
          ],
          [
            -60.39185678,
            47.17577735
          ],
          [
            -61.44867607,
            46.76422889
          ],
          [
            -62.48928635,
            46.34310102
          ],
          [
            -63.51381391,
            45.91267906
          ],
          [
            -64.522409,
            45.47324364
          ],
          [
            -65.51524359,
            45.02507038
          ],
          [
            -66.4925091,
            44.56842956
          ],
          [
            -67.45441439,
            44.10358592
          ],
          [
            -68.40118375,
            43.63079844
          ],
          [
            -69.333055,
            43.1503202
          ],
          [
            -70.25027778,
            42.66239826
          ],
          [
            -71.15311183,
            42.16727355
          ],
          [
            -72.04182555,
            41.66518089
          ],
          [
            -72.91669446,
            41.15634889
          ],
          [
            -73.778,
            40.641
          ]
        ],
        "type": "LineString"
      },
      "properties": {
        "arrival": "JFK",
        "departure": "LHR",
        "distanceKm": 5540,
        "frequency": 1,
        "lastDate": "2024-07-20",
        "type": "flight"
      },
      "type": "Feature"
    },
    {
      "geometry": {
        "coordinates": [
          [
            121.805,
            31.143
          ],
          [
            120.9354546,
            32.31422004
          ],
          [
            120.0431865,
            33.47932232
          ],
          [
            119.1266586,
            34.63785727
          ],
          [
            118.1842402,
            35.78934214
          ],
          [
            117.214201,
            36.93325787
          ],
          [
            116.214705,
            38.06904566
          ],
          [
            115.1838035,
            39.19610326
          ],
          [
            114.1194292,
            40.31378088
          ],
          [
            113.0193902,
            41.42137683
          ],
          [
            111.8813643,
            42.51813269
          ],
          [
            110.7028943,
            43.60322819
          ],
          [
            109.4813843,
            44.67577565
          ],
          [
            108.2140981,
            45.73481406
          ],
          [
            106.8981589,
            46.77930279
          ],
          [
            105.530552,
            47.80811501
          ],
          [
            104.1081324,
            48.82003076
          ],
          [
            102.6276349,
            49.81372996
          ],
          [
            101.085692,
            50.78778533
          ],
          [
            99.47885803,
            51.74065545
          ],
          [
            97.80364227,
            52.67067828
          ],
          [
            96.05655245,
            53.57606536
          ],
          [
            94.23415062,
            54.4548972
          ],
          [
            92.33312302,
            55.30512033
          ],
          [
            90.35036557,
            56.12454657
          ],
          [
            88.28308626,
            56.91085542
          ],
          [
            86.12892505,
            57.66160016
          ],
          [
            83.88609074,
            58.37421879
          ],
          [
            81.55351277,
            59.04605046
          ],
          [
            79.13100427,
            59.67435855
          ],
          [
            76.61942989,
            60.25636087
          ],
          [
            74.02086963,
            60.78926749
          ],
          [
            71.33876711,
            61.27032629
          ],
          [
            68.5780487,
            61.69687554
          ],
          [
            65.74519835,
            62.06640223
          ],
          [
            62.84827344,
            62.37660428
          ],
          [
            59.89684931,
            62.62545353
          ],
          [
            56.9018842,
            62.81125625
          ],
          [
            53.87550351,
            62.93270737
          ],
          [
            50.83070977,
            62.98893445
          ],
          [
            47.78103349,
            62.97952831
          ],
          [
            44.74014692,
            62.90455764
          ],
          [
            41.72146766,
            62.76456653
          ],
          [
            38.73778048,
            62.56055509
          ],
          [
            35.80090308,
            62.29394474
          ],
          [
            32.92141618,
            61.96653086
          ],
          [
            30.10847057,
            61.58042644
          ],
          [
            27.36967535,
            61.13800045
          ],
          [
            24.71106387,
            60.6418147
          ],
          [
            22.13712794,
            60.09456257
          ],
          [
            19.65090692,
            59.49901209
          ],
          [
            17.25411663,
            58.85795528
          ],
          [
            14.94730343,
            58.17416483
          ],
          [
            12.73001027,
            57.45035841
          ],
          [
            10.60094394,
            56.6891706
          ],
          [
            8.558135376,
            55.89313181
          ],
          [
            6.599087562,
            55.06465351
          ],
          [
            4.720907631,
            54.20601873
          ],
          [
            2.920421735,
            53.31937717
          ],
          [
            1.19427252,
            52.40674373
          ],
          [
            -0.461,
            51.47
          ]
        ],
        "type": "LineString"
      },
      "properties": {
        "arrival": "LHR",
        "departure": "PVG",
        "distanceKm": 9241,
        "frequency": 1,
        "lastDate": "2024-07-10",
        "type": "flight"
      },
      "type": "Feature"
    },
    {
      "geometry": {
        "coordinates": [
          [
            116.41,
            39.509
          ],
          [
            116.1237983,
            38.8840348
          ],
          [
            115.8425906,
            38.2583832
          ],
          [
            115.5661873,
            37.63207201
          ],
          [
            115.2944065,
            37.00512681
          ],
          [
            115.0270741,
            36.37757211
          ],
          [
            114.7640233,
            35.74943131
          ],
          [
            114.5050941,
            35.12072685
          ],
          [
            114.2501328,
            34.4914802
          ],
          [
            113.9989921,
            33.86171195
          ],
          [
            113.7515304,
            33.23144183
          ],
          [
            113.5076116,
            32.60068879
          ],
          [
            113.2671048,
            31.96947101
          ],
          [
            113.0298841,
            31.33780598
          ],
          [
            112.7958282,
            30.70571047
          ],
          [
            112.5648206,
            30.07320066
          ],
          [
            112.3367486,
            29.44029208
          ],
          [
            112.1115038,
            28.80699971
          ],
          [
            111.8889815,
            28.17333798
          ],
          [
            111.6690807,
            27.53932079
          ],
          [
            111.4517038,
            26.90496157
          ],
          [
            111.2367565,
            26.27027327
          ],
          [
            111.0241476,
            25.63526841
          ],
          [
            110.8137888,
            24.99995907
          ],
          [
            110.6055948,
            24.36435697
          ],
          [
            110.3994827,
            23.72847341
          ],
          [
            110.1953724,
            23.09231936
          ],
          [
            109.9931859,
            22.45590546
          ],
          [
            109.7928479,
            21.81924198
          ],
          [
            109.5942848,
            21.18233895
          ],
          [
            109.3974255,
            20.54520605
          ],
          [
            109.2022006,
            19.90785273
          ],
          [
            109.0085426,
            19.27028814
          ],
          [
            108.8163859,
            18.63252122
          ],
          [
            108.6256664,
            17.99456065
          ],
          [
            108.4363217,
            17.3564149
          ],
          [
            108.248291,
            16.71809222
          ],
          [
            108.0615146,
            16.07960067
          ],
          [
            107.8759346,
            15.44094811
          ],
          [
            107.6914939,
            14.80214225
          ],
          [
            107.508137,
            14.16319059
          ],
          [
            107.3258094,
            13.5241005
          ],
          [
            107.1444576,
            12.88487919
          ],
          [
            106.9640293,
            12.24553374
          ],
          [
            106.7844729,
            11.6060711
          ],
          [
            106.6057379,
            10.96649807
          ],
          [
            106.4277745,
            10.32682135
          ],
          [
            106.2505338,
            9.687047551
          ],
          [
            106.0739676,
            9.047183153
          ],
          [
            105.8980282,
            8.407234559
          ],
          [
            105.7226689,
            7.76720808
          ],
          [
            105.5478431,
            7.127109951
          ],
          [
            105.3735052,
            6.486946332
          ],
          [
            105.1996096,
            5.846723316
          ],
          [
            105.0261116,
            5.206446939
          ],
          [
            104.8529667,
            4.566123181
          ],
          [
            104.6801305,
            3.925757974
          ],
          [
            104.5075593,
            3.285357211
          ],
          [
            104.3352093,
            2.644926747
          ],
          [
            104.1630373,
            2.004472409
          ],
          [
            103.991,
            1.364
          ]
        ],
        "type": "LineString"
      },
      "properties": {
        "arrival": "PKX",
        "departure": "SIN",
        "distanceKm": 4424,
        "frequency": 2,
        "lastDate": "2025-11-12",
        "type": "flight"
      },
      "type": "Feature"
    },
    {
      "geometry": {
        "coordinates": [
          [
            116.379,
            39.865
          ],
          [
            121.32,
            31.194
          ]
        ],
        "type": "LineString"
      },
      "properties": {
        "arrival": "上海虹桥",
        "departure": "北京南",
        "distanceKm": 1062,
        "frequency": 1,
        "lastDate": "2026-06-10",
        "type": "train"
      },
      "type": "Feature"
    },
    {
      "geometry": {
        "coordinates": [
          [
            121.32,
            31.194
          ],
          [
            118.798,
            31.97
          ]
        ],
        "type": "LineString"
      },
      "properties": {
        "arrival": "南京南",
        "departure": "上海虹桥",
        "distanceKm": 254,
        "frequency": 1,
        "lastDate": "2024-04-05",
        "type": "train"
      },
      "type": "Feature"
    },
    {
      "geometry": {
        "coordinates": [
          [
            121.32,
            31.194
          ],
          [
            120.213,
            30.291
          ]
        ],
        "type": "LineString"
      },
      "properties": {
        "arrival": "杭州东",
        "departure": "上海虹桥",
        "distanceKm": 146,
        "frequency": 1,
        "lastDate": "2026-06-14",
        "type": "train"
      },
      "type": "Feature"
    },
    {
      "geometry": {
        "coordinates": [
          [
            114.425,
            30.607
          ],
          [
            116.379,
            39.865
          ]
        ],
        "type": "LineString"
      },
      "properties": {
        "arrival": "北京南",
        "departure": "武汉",
        "distanceKm": 1045,
        "frequency": 1,
        "lastDate": "2025-09-23",
        "type": "train"
      },
      "type": "Feature"
    },
    {
      "geometry": {
        "coordinates": [
          [
            113.269,
            22.989
          ],
          [
            114.425,
            30.607
          ]
        ],
        "type": "LineString"
      },
      "properties": {
        "arrival": "武汉",
        "departure": "广州南",
        "distanceKm": 855,
        "frequency": 1,
        "lastDate": "2025-09-21",
        "type": "train"
      },
      "type": "Feature"
    }
  ],
  "type": "FeatureCollection"
}